[{"OBJECT_NAME":"YAOGAN-28","OBJECT_ID":"2015-064A","EPOCH":"2026-03-09T23:07:10.370208","MEAN_MOTION":15.26008,"ECCENTRICITY":0.00111911,"INCLINATION":97.2901,"RA_OF_ASC_NODE":209.4389,"ARG_OF_PERICENTER":175.4532,"MEAN_ANOMALY":184.6811,"EPHEMERIS_TYPE":0,"CLASSIFICATION_TYPE":"U","NORAD_CAT_ID":41026,"ELEMENT_SET_NO":999,"REV_AT_EPOCH":57554,"BSTAR":0.00039691695,"MEAN_MOTION_DOT":0.00010159,"MEAN_MOTION_DDOT":0},{"OBJECT_NAME":"STARLINK-31210","OBJECT_ID":"2024-038L","EPOCH":"2026-03-09T06:33:39.084192","MEAN_MOTION":15.27570671,"ECCENTRICITY":0.00013321,"INCLINATION":43.0051,"RA_OF_ASC_NODE":25.9971,"ARG_OF_PERICENTER":270.8721,"MEAN_ANOMALY":89.1978,"EPHEMERIS_TYPE":0,"CLASSIFICATION_TYPE":"U","NORAD_CAT_ID":59033,"ELEMENT_SET_NO":999,"REV_AT_EPOCH":11479,"BSTAR":-3.467489e-5,"MEAN_MOTION_DOT":-1.216e-5,"MEAN_MOTION_DDOT":0}]
